CCSDS_OMM_VERS = 2.0
CREATION_DATE  = 
ORIGINATOR     = 

OBJECT_NAME    = CSG-3
OBJECT_ID      = 2026-001A
CENTER_NAME    = EARTH
REF_FRAME      = TEME
TIME_SYSTEM    = UTC
MEAN_ELEMENT_THEORY = SGP/SGP4

EPOCH          = 2026-01-14T14:47:28.937760
MEAN_MOTION    = 14.82318276
ECCENTRICITY   = .00015635
INCLINATION    = 97.8588
RA_OF_ASC_NODE = 200.5137
ARG_OF_PERICENTER = 92.4871
MEAN_ANOMALY   = 267.6521

EPHEMERIS_TYPE = 0
CLASSIFICATION_TYPE = U
NORAD_CAT_ID   = 67304
ELEMENT_SET_NO = 999
REV_AT_EPOCH   = 171
BSTAR          = .40113868E-4
MEAN_MOTION_DOT = .269E-5
MEAN_MOTION_DDOT = 0

CCSDS_OMM_VERS = 2.0
CREATION_DATE  = 
ORIGINATOR     = 

OBJECT_NAME    = STARLINK-36490
OBJECT_ID      = 2026-002A
CENTER_NAME    = EARTH
REF_FRAME      = TEME
TIME_SYSTEM    = UTC
MEAN_ELEMENT_THEORY = SGP/SGP4

EPOCH          = 2026-01-14T14:00:01.999872
MEAN_MOTION    = 15.89848412
ECCENTRICITY   = .00017873
INCLINATION    = 42.9975
RA_OF_ASC_NODE = 278.4335
ARG_OF_PERICENTER = 267.7433
MEAN_ANOMALY   = 224.5110

EPHEMERIS_TYPE = 0
CLASSIFICATION_TYPE = U
NORAD_CAT_ID   = 67305
ELEMENT_SET_NO = 999
REV_AT_EPOCH   = 277
BSTAR          = -.43189824E-2
MEAN_MOTION_DOT = -.1169308E-1
MEAN_MOTION_DDOT = 0

CCSDS_OMM_VERS = 2.0
CREATION_DATE  = 
ORIGINATOR     = 

OBJECT_NAME    = STARLINK-36488
OBJECT_ID      = 2026-002B
CENTER_NAME    = EARTH
REF_FRAME      = TEME
TIME_SYSTEM    = UTC
MEAN_ELEMENT_THEORY = SGP/SGP4

EPOCH          = 2026-01-14T14:00:01.999872
MEAN_MOTION    = 15.89882078
ECCENTRICITY   = .00018549
INCLINATION    = 42.9978
RA_OF_ASC_NODE = 278.4285
ARG_OF_PERICENTER = 271.0751
MEAN_ANOMALY   = 223.1199

EPHEMERIS_TYPE = 0
CLASSIFICATION_TYPE = U
NORAD_CAT_ID   = 67306
ELEMENT_SET_NO = 999
REV_AT_EPOCH   = 271
BSTAR          = -.43175872E-2
MEAN_MOTION_DOT = -.1170802E-1
MEAN_MOTION_DDOT = 0

CCSDS_OMM_VERS = 2.0
CREATION_DATE  = 
ORIGINATOR     = 

OBJECT_NAME    = STARLINK-36481
OBJECT_ID      = 2026-002C
CENTER_NAME    = EARTH
REF_FRAME      = TEME
TIME_SYSTEM    = UTC
MEAN_ELEMENT_THEORY = SGP/SGP4

EPOCH          = 2026-01-14T14:00:01.999872
MEAN_MOTION    = 15.89950295
ECCENTRICITY   = .00017926
INCLINATION    = 42.9978
RA_OF_ASC_NODE = 278.4164
ARG_OF_PERICENTER = 270.9297
MEAN_ANOMALY   = 228.1236

EPHEMERIS_TYPE = 0
CLASSIFICATION_TYPE = U
NORAD_CAT_ID   = 67307
ELEMENT_SET_NO = 999
REV_AT_EPOCH   = 271
BSTAR          = -.43492256E-2
MEAN_MOTION_DOT = -.1181884E-1
MEAN_MOTION_DDOT = 0

CCSDS_OMM_VERS = 2.0
CREATION_DATE  = 
ORIGINATOR     = 

OBJECT_NAME    = STARLINK-36449
OBJECT_ID      = 2026-002D
CENTER_NAME    = EARTH
REF_FRAME      = TEME
TIME_SYSTEM    = UTC
MEAN_ELEMENT_THEORY = SGP/SGP4

EPOCH          = 2026-01-14T14:00:01.999872
MEAN_MOTION    = 15.89989382
ECCENTRICITY   = .00018083
INCLINATION    = 42.9977
RA_OF_ASC_NODE = 278.4105
ARG_OF_PERICENTER = 270.8121
MEAN_ANOMALY   = 230.5250

EPHEMERIS_TYPE = 0
CLASSIFICATION_TYPE = U
NORAD_CAT_ID   = 67308
ELEMENT_SET_NO = 999
REV_AT_EPOCH   = 277
BSTAR          = -.43699045E-2
MEAN_MOTION_DOT = -.1188891E-1
MEAN_MOTION_DDOT = 0

CCSDS_OMM_VERS = 2.0
CREATION_DATE  = 
ORIGINATOR     = 

OBJECT_NAME    = STARLINK-36482
OBJECT_ID      = 2026-002E
CENTER_NAME    = EARTH
REF_FRAME      = TEME
TIME_SYSTEM    = UTC
MEAN_ELEMENT_THEORY = SGP/SGP4

EPOCH          = 2026-01-14T14:00:01.999872
MEAN_MOTION    = 15.90180479
ECCENTRICITY   = .00017145
INCLINATION    = 42.9982
RA_OF_ASC_NODE = 278.3810
ARG_OF_PERICENTER = 271.2813
MEAN_ANOMALY   = 242.0380

EPHEMERIS_TYPE = 0
CLASSIFICATION_TYPE = U
NORAD_CAT_ID   = 67309
ELEMENT_SET_NO = 999
REV_AT_EPOCH   = 271
BSTAR          = -.45185717E-2
MEAN_MOTION_DOT = -.1259317E-1
MEAN_MOTION_DDOT = 0

CCSDS_OMM_VERS = 2.0
CREATION_DATE  = 
ORIGINATOR     = 

OBJECT_NAME    = STARLINK-36491
OBJECT_ID      = 2026-002F
CENTER_NAME    = EARTH
REF_FRAME      = TEME
TIME_SYSTEM    = UTC
MEAN_ELEMENT_THEORY = SGP/SGP4

EPOCH          = 2026-01-14T14:00:01.999872
MEAN_MOTION    = 15.89917087
ECCENTRICITY   = .0001784
INCLINATION    = 42.9981
RA_OF_ASC_NODE = 278.4213
ARG_OF_PERICENTER = 271.1231
MEAN_ANOMALY   = 226.0534

EPHEMERIS_TYPE = 0
CLASSIFICATION_TYPE = U
NORAD_CAT_ID   = 67310
ELEMENT_SET_NO = 999
REV_AT_EPOCH   = 271
BSTAR          = -.43444053E-2
MEAN_MOTION_DOT = -.1178966E-1
MEAN_MOTION_DDOT = 0

CCSDS_OMM_VERS = 2.0
CREATION_DATE  = 
ORIGINATOR     = 

OBJECT_NAME    = STARLINK-36495
OBJECT_ID      = 2026-002G
CENTER_NAME    = EARTH
REF_FRAME      = TEME
TIME_SYSTEM    = UTC
MEAN_ELEMENT_THEORY = SGP/SGP4

EPOCH          = 2026-01-14T14:00:01.999872
MEAN_MOTION    = 15.90020969
ECCENTRICITY   = .00018199
INCLINATION    = 42.9979
RA_OF_ASC_NODE = 278.4039
ARG_OF_PERICENTER = 268.9430
MEAN_ANOMALY   = 235.0147

EPHEMERIS_TYPE = 0
CLASSIFICATION_TYPE = U
NORAD_CAT_ID   = 67311
ELEMENT_SET_NO = 999
REV_AT_EPOCH   = 287
BSTAR          = -.43718967E-2
MEAN_MOTION_DOT = -.1191066E-1
MEAN_MOTION_DDOT = 0

CCSDS_OMM_VERS = 2.0
CREATION_DATE  = 
ORIGINATOR     = 

OBJECT_NAME    = STARLINK-36485
OBJECT_ID      = 2026-002H
CENTER_NAME    = EARTH
REF_FRAME      = TEME
TIME_SYSTEM    = UTC
MEAN_ELEMENT_THEORY = SGP/SGP4

EPOCH          = 2026-01-14T14:00:01.999872
MEAN_MOTION    = 15.90058952
ECCENTRICITY   = .00018304
INCLINATION    = 42.9980
RA_OF_ASC_NODE = 278.3968
ARG_OF_PERICENTER = 266.1793
MEAN_ANOMALY   = 240.5934

EPHEMERIS_TYPE = 0
CLASSIFICATION_TYPE = U
NORAD_CAT_ID   = 67312
ELEMENT_SET_NO = 999
REV_AT_EPOCH   = 271
BSTAR          = -.44044856E-2
MEAN_MOTION_DOT = -.1200861E-1
MEAN_MOTION_DDOT = 0

CCSDS_OMM_VERS = 2.0
CREATION_DATE  = 
ORIGINATOR     = 

OBJECT_NAME    = STARLINK-36445
OBJECT_ID      = 2026-002J
CENTER_NAME    = EARTH
REF_FRAME      = TEME
TIME_SYSTEM    = UTC
MEAN_ELEMENT_THEORY = SGP/SGP4

EPOCH          = 2026-01-14T14:00:01.999872
MEAN_MOTION    = 15.90094521
ECCENTRICITY   = .00017456
INCLINATION    = 42.9977
RA_OF_ASC_NODE = 278.3925
ARG_OF_PERICENTER = 271.3099
MEAN_ANOMALY   = 237.0964

EPHEMERIS_TYPE = 0
CLASSIFICATION_TYPE = U
NORAD_CAT_ID   = 67313
ELEMENT_SET_NO = 999
REV_AT_EPOCH   = 287
BSTAR          = -.44004614E-2
MEAN_MOTION_DOT = -.1201766E-1
MEAN_MOTION_DDOT = 0

CCSDS_OMM_VERS = 2.0
CREATION_DATE  = 
ORIGINATOR     = 

OBJECT_NAME    = STARLINK-36476
OBJECT_ID      = 2026-002K
CENTER_NAME    = EARTH
REF_FRAME      = TEME
TIME_SYSTEM    = UTC
MEAN_ELEMENT_THEORY = SGP/SGP4

EPOCH          = 2026-01-14T14:00:01.999872
MEAN_MOTION    = 15.90137536
ECCENTRICITY   = .00017516
INCLINATION    = 42.9981
RA_OF_ASC_NODE = 278.3858
ARG_OF_PERICENTER = 270.5762
MEAN_ANOMALY   = 240.6115

EPHEMERIS_TYPE = 0
CLASSIFICATION_TYPE = U
NORAD_CAT_ID   = 67314
ELEMENT_SET_NO = 999
REV_AT_EPOCH   = 271
BSTAR          = -.44654341E-2
MEAN_MOTION_DOT = -.1243724E-1
MEAN_MOTION_DDOT = 0

CCSDS_OMM_VERS = 2.0
CREATION_DATE  = 
ORIGINATOR     = 

OBJECT_NAME    = STARLINK-36463
OBJECT_ID      = 2026-002L
CENTER_NAME    = EARTH
REF_FRAME      = TEME
TIME_SYSTEM    = UTC
MEAN_ELEMENT_THEORY = SGP/SGP4

EPOCH          = 2026-01-14T14:00:01.999872
MEAN_MOTION    = 15.90219445
ECCENTRICITY   = .00017362
INCLINATION    = 42.9979
RA_OF_ASC_NODE = 278.3741
ARG_OF_PERICENTER = 267.5229
MEAN_ANOMALY   = 248.1287

EPHEMERIS_TYPE = 0
CLASSIFICATION_TYPE = U
NORAD_CAT_ID   = 67315
ELEMENT_SET_NO = 999
REV_AT_EPOCH   = 277
BSTAR          = -.45878523E-2
MEAN_MOTION_DOT = -.1278718E-1
MEAN_MOTION_DDOT = 0

