CSG-3                   
1 67304U 26001A   26014.61630715  .00000269  00000+0  40114-4 0  9991
2 67304  97.8588 200.5137 0001563  92.4871 267.6521 14.82318276  1711
STARLINK-36490          
1 67305U 26002A   26014.58335648 -.01169308  00000+0 -43190-2 0  9994
2 67305  42.9975 278.4335 0001787 267.7433 224.5110 15.89848412  2777
STARLINK-36488          
1 67306U 26002B   26014.58335648 -.01170802  00000+0 -43176-2 0  9990
2 67306  42.9978 278.4285 0001854 271.0751 223.1199 15.89882078  2713
STARLINK-36481          
1 67307U 26002C   26014.58335648 -.01181884  00000+0 -43492-2 0  9994
2 67307  42.9978 278.4164 0001792 270.9297 228.1236 15.89950295  2718
STARLINK-36449          
1 67308U 26002D   26014.58335648 -.01188891  00000+0 -43699-2 0  9999
2 67308  42.9977 278.4105 0001808 270.8121 230.5250 15.89989382  2774
STARLINK-36482          
1 67309U 26002E   26014.58335648 -.01259317  00000+0 -45186-2 0  9995
2 67309  42.9982 278.3810 0001714 271.2813 242.0380 15.90180479  2710
STARLINK-36491          
1 67310U 26002F   26014.58335648 -.01178966  00000+0 -43444-2 0  9992
2 67310  42.9981 278.4213 0001784 271.1231 226.0534 15.89917087  2713
STARLINK-36495          
1 67311U 26002G   26014.58335648 -.01191066  00000+0 -43719-2 0  9994
2 67311  42.9979 278.4039 0001819 268.9430 235.0147 15.90020969  2874
STARLINK-36485          
1 67312U 26002H   26014.58335648 -.01200861  00000+0 -44045-2 0  9992
2 67312  42.9980 278.3968 0001830 266.1793 240.5934 15.90058952  2713
STARLINK-36445          
1 67313U 26002J   26014.58335648 -.01201766  00000+0 -44005-2 0  9994
2 67313  42.9977 278.3925 0001745 271.3099 237.0964 15.90094521  2878
STARLINK-36476          
1 67314U 26002K   26014.58335648 -.01243724  00000+0 -44654-2 0  9995
2 67314  42.9981 278.3858 0001751 270.5762 240.6115 15.90137536  2719
STARLINK-36463          
1 67315U 26002L   26014.58335648 -.01278718  00000+0 -45879-2 0  9997
2 67315  42.9979 278.3741 0001736 267.5229 248.1287 15.90219445  2774
